     2.100          NAVIGATION                              RINEX VERSION / TYPE
fic2rin                                 06/13/2012 00:15:15 PGM / RUN BY / DATE
                                                            END OF HEADER
 9 12  6 12 22  0  0.0  .164634082466D-03  .250111042988D-11  .000000000000D+00
     .320000000000D+02 -.453125000000D+02  .399230915284D-08 -.144781045697D+01
    -.194273889065D-05  .175362594891D-01  .871531665325D-05  .515362191010D+04
     .252000000000D+06 -.912696123123D-07  .165053912671D+01  .409781932831D-06
     .984380934846D+00  .226031250000D+03  .162353870750D+01 -.788139972051D-08
    -.332156692802D-10  .100000000000D+01  .169200000000D+04  .000000000000D+00
     .240000000000D+01  .000000000000D+00 -.558793544769D-08  .320000000000D+02
     .244806000000D+06  .400000000000D+01
10 12  6 12 22  0  0.0 -.412571243942D-04 -.125055521494D-11  .000000000000D+00
     .300000000000D+01  .796562500000D+02  .465376527657D-08  .298386380478D+01
     .403262674809D-05  .112984344596D-01  .723078846931D-05  .515370695305D+04
     .252000000000D+06  .782310962677D-07 -.413710517641D+00 -.838190317154D-07
     .945954768482D+00  .232312500000D+03  .751777097757D+00 -.802069123684D-08
     .155363614375D-09  .100000000000D+01  .169200000000D+04  .000000000000D+00
     .240000000000D+01  .000000000000D+00 -.232830643654D-08  .300000000000D+01
     .244806000000D+06  .400000000000D+01
11 12  6 12 22  0  0.0 -.271006487310D-03 -.397903932026D-11  .000000000000D+00
     .250000000000D+02 -.197187500000D+02  .639026618024D-08 -.644462913404D+00
    -.979751348495D-06  .129700145917D-01  .765919685364D-05  .515367667770D+04
     .252000000000D+06 -.968575477600D-07 -.175586969070D+01  .242143869400D-06
     .887771344863D+00  .191187500000D+03  .105226532666D+01 -.911395106122D-08
    -.343942898031D-09  .100000000000D+01  .169200000000D+04  .000000000000D+00
     .240000000000D+01  .000000000000D+00 -.116415321827D-07  .250000000000D+02
     .244806000000D+06  .400000000000D+01
12 12  6 12 22  0  0.0  .742012634873D-04  .204636307899D-11  .000000000000D+00
     .530000000000D+02 -.728125000000D+01  .429446459597D-08 -.104646901409D+01
    -.363215804100D-06  .411143654492D-02  .783801078796D-05  .515378048515D+04
     .252000000000D+06  .707805156708D-07  .273277565983D+01 -.428408384323D-07
     .980260629001D+00  .240156250000D+03  .754132485102D-01 -.789425739894D-08
     .417874549009D-09  .100000000000D+01  .169200000000D+04  .000000000000D+00
     .240000000000D+01  .000000000000D+00 -.121071934700D-07  .530000000000D+02
     .244806000000D+06  .400000000000D+01
13 12  6 12 22  0  0.0  .201405957341D-03 -.238742359215D-11  .000000000000D+00
     .104000000000D+03 -.259375000000D+01  .398159442082D-08  .150055701869D+01
    -.175088644028D-06  .498359848280D-02  .444427132607D-05  .515365811157D+04
     .252000000000D+06  .949949026108D-07  .705649371369D+00 -.596046447754D-07
     .985713530331D+00  .305593750000D+03  .201689131859D+01 -.794104506212D-08
    -.360729311538D-10  .100000000000D+01  .169200000000D+04  .000000000000D+00
     .240000000000D+01  .000000000000D+00 -.111758708954D-07  .104000000000D+03
     .244806000000D+06  .400000000000D+01
14 12  6 12 22  0  0.0  .204992480576D-03  .795807864051D-12  .000000000000D+00
     .680000000000D+02  .650000000000D+01  .420517516242D-08  .170356548176D+01
     .381842255592D-06  .640395644587D-02  .426732003689D-05  .515359943390D+04
     .252000000000D+06 -.119209289551D-06  .678838850626D+00 -.782310962677D-07
     .978557346167D+00  .303968750000D+03 -.207086383492D+01 -.813176729218D-08
    -.121433629627D-10  .100000000000D+01  .169200000000D+04  .000000000000D+00
     .240000000000D+01  .000000000000D+00 -.884756445885D-08  .680000000000D+02
     .244806000000D+06  .400000000000D+01
15 12  6 12 22  0  0.0 -.916998833418D-04 -.227373675443D-12  .000000000000D+00
     .570000000000D+02  .800000000000D+01  .499163649312D-08  .122426587175D+01
     .430271029472D-06  .439497316256D-02  .393018126488D-05  .515357242393D+04
     .252000000000D+06 -.186264514923D-07  .590502899170D+00  .931322574615D-07
     .945418878183D+00  .294937500000D+03  .516184763339D-01 -.848928218411D-08
    -.882179603464D-10  .100000000000D+01  .169200000000D+04  .000000000000D+00
     .240000000000D+01  .000000000000D+00 -.102445483208D-07  .570000000000D+02
     .244806000000D+06  .400000000000D+01
16 12  6 12 22  0  0.0 -.237986445427D-03 -.113686837722D-11  .000000000000D+00
     .270000000000D+02 -.768750000000D+01  .416124476112D-08  .295395719348D+01
    -.339001417160D-06  .663932948373D-02  .810436904430D-05  .515368923759D+04
     .252000000000D+06 -.150874257088D-06  .275093233403D+01 -.279396772385D-07
     .981094185094D+00  .235093750000D+03 -.199233935465D-02 -.771210695450D-08
     .337514058815D-09  .100000000000D+01  .169200000000D+04  .000000000000D+00
     .240000000000D+01  .000000000000D+00 -.977888703346D-08  .270000000000D+02
     .244806000000D+06  .400000000000D+01
17 12  6 12 22  0  0.0  .121572986245D-03 -.295585778076D-11  .000000000000D+00
     .810000000000D+02 -.311875000000D+02  .471555356459D-08  .200434359666D+01
    -.175647437572D-05  .738866662141D-02  .659003853798D-05  .515369072342D+04
     .252000000000D+06 -.178813934326D-06 -.249241530088D+01 -.109896063805D-06
     .963083637396D+00  .255875000000D+03 -.229432468710D+01 -.807605068564D-08
    -.123576576032D-09  .100000000000D+01  .169200000000D+04  .000000000000D+00
     .240000000000D+01  .000000000000D+00 -.107102096081D-07  .810000000000D+02
     .244806000000D+06  .400000000000D+01
18 12  6 12 22  0  0.0  .200244132429D-03  .181898940355D-11  .000000000000D+00
     .510000000000D+02  .755312500000D+02  .495020619596D-08 -.280224800826D+01
     .383704900742D-05  .134298270568D-01  .784918665886D-05  .515370473289D+04
     .252000000000D+06  .100582838058D-06 -.425146196543D+00 -.171363353729D-06
     .929762834228D+00  .209687500000D+03 -.217254581832D+01 -.811390940547D-08
     .183221917643D-09  .100000000000D+01  .169200000000D+04  .000000000000D+00
     .240000000000D+01  .000000000000D+00 -.107102096081D-07  .510000000000D+02
     .244806000000D+06  .400000000000D+01
19 12  6 12 22  0  0.0 -.274607446045D-03 -.363797880709D-11  .000000000000D+00
     .420000000000D+02 -.273437500000D+02  .488698927701D-08  .117495596353D+01
    -.112503767014D-05  .840582349338D-02  .610016286373D-05  .515358245087D+04
     .252000000000D+06  .614672899246D-07 -.243943703342D+01  .726431608200D-07
     .960412514293D+00  .258656250000D+03  .176810385662D+00 -.827355891265D-08
    -.235366946835D-09  .100000000000D+01  .169200000000D+04  .000000000000D+00
     .240000000000D+01  .000000000000D+00 -.144354999065D-07  .420000000000D+02
     .244806000000D+06  .400000000000D+01
20 12  6 12 22  0  0.0  .638645142317D-04  .227373675443D-12  .000000000000D+00
     .900000000000D+01  .721875000000D+02  .500627996023D-08 -.243738112442D+01
     .380165874958D-05  .493447831832D-02  .762194395065D-05  .515369068718D+04
     .252000000000D+06  .130385160446D-07 -.478843312695D+00 -.540167093277D-07
     .930209297808D+00  .217187500000D+03  .129329678319D+01 -.820605610089D-08
     .271439877989D-10  .100000000000D+01  .169200000000D+04  .000000000000D+00
     .240000000000D+01  .000000000000D+00 -.791624188423D-08  .900000000000D+01
     .244806000000D+06  .400000000000D+01
21 12  6 12 22  0  0.0 -.229832250625D-03 -.238742359215D-11  .000000000000D+00
     .830000000000D+02 -.731250000000D+01  .497413576415D-08 -.171838691778D+01
    -.499188899994D-06  .192218339071D-01  .928901135921D-05  .515360510826D+04
     .252000000000D+06  .329688191414D-06 -.147592175180D+01 -.197440385818D-06
     .931013955417D+00  .179875000000D+03 -.224388159815D+01 -.798354683249D-08
    -.203937066226D-09  .100000000000D+01  .169200000000D+04  .000000000000D+00
     .240000000000D+01  .000000000000D+00 -.111758708954D-07  .830000000000D+02
     .244806000000D+06  .400000000000D+01
22 12  6 12 22  0  0.0  .144515186548D-03  .454747350886D-12  .000000000000D+00
     .850000000000D+02  .706875000000D+02  .510664128354D-08  .267378956671D+01
     .364147126675D-05  .618197664153D-02  .777840614319D-05  .515367929840D+04
     .252000000000D+06  .447034835815D-07 -.421802951820D+00 -.651925802231D-07
     .927485187812D+00  .211281250000D+03 -.201692420060D+01 -.825070081766D-08
     .109290266664D-09  .100000000000D+01  .169200000000D+04  .000000000000D+00
     .340000000000D+01  .000000000000D+00 -.167638063431D-07  .850000000000D+02
     .244806000000D+06  .400000000000D+01
23 12  6 12 22  0  0.0  .195957254618D-03 -.375166564481D-11  .000000000000D+00
     .130000000000D+02  .116250000000D+02  .459447709270D-08  .773400990204D+00
     .650063157082D-06  .798410293646D-02  .401400029659D-05  .515362331963D+04
     .252000000000D+06  .596046447754D-07  .626455325190D+00  .152736902237D-06
     .960156699661D+00  .301031250000D+03 -.299877710329D+01 -.830748889740D-08
    -.646455498895D-10  .100000000000D+01  .169200000000D+04  .000000000000D+00
     .240000000000D+01  .000000000000D+00 -.200234353542D-07  .130000000000D+02
     .244806000000D+06  .400000000000D+01
25 12  6 12 22  0  0.0  .353078357875D-04  .568434188608D-12  .000000000000D+00
     .840000000000D+02 -.103750000000D+02  .446661462386D-08 -.228053749905D+01
    -.547617673874D-06  .174306263216D-02  .811927020550D-05  .515370265007D+04
     .252000000000D+06  .968575477600D-07  .269852400628D+01 -.596046447754D-07
     .969092874768D+00  .227500000000D+03  .706793667353D+00 -.798997567170D-08
     .368586781690D-09  .100000000000D+01  .169200000000D+04  .000000000000D+00
     .240000000000D+01  .000000000000D+00  .558793544769D-08  .840000000000D+02
     .244806000000D+06  .400000000000D+01
